{"type": "FeatureCollection", "features": [
{"type":"Feature","geometry":{"type":"Polygon","coordinates":[[[-75.5919012,6.2462646],[-75.5918414,6.2462835],[-75.5918547,6.2463257],[-75.5918293,6.2463337],[-75.5918823,6.2465024],[-75.5919675,6.2464755],[-75.5919012,6.2462646]]]},"properties":{"id":"3e845a00-7f77-4069-b62e-769482b30d9c","version":1,"sources":[{"property":"","dataset":"Google Open Buildings","license":null,"record_id":"67R66CW5+H65F","update_time":"2023-05-01T00:00:00.000Z","confidence":0.8057,"between":null}],"has_parts":false,"is_underground":false}},
{"type":"Feature","geometry":{"type":"Polygon","coordinates":[[[-75.5926641,6.2464156],[-75.592478,6.2464333],[-75.5924879,6.2465364],[-75.5924932,6.2465359],[-75.5925086,6.2466956],[-75.5926362,6.2466835],[-75.5926286,6.2466042],[-75.5927125,6.2465962],[-75.5927228,6.2467033],[-75.5927346,6.2467022],[-75.5927267,6.2466203],[-75.5927772,6.2466155],[-75.5927589,6.2464253],[-75.5926658,6.2464341],[-75.5926641,6.2464156]]]},"properties":{"id":"46865a83-a62a-4572-9765-6a360bf0211f","version":3,"sources":[{"property":"","dataset":"Microsoft ML Buildings","license":"ODbL-1.0","record_id":null,"update_time":"2023-04-14T00:00:00.000Z","confidence":null,"between":null}],"has_parts":false,"is_underground":false}},
{"type":"Feature","geometry":{"type":"Polygon","coordinates":[[[-75.5923361,6.2466579],[-75.5922129,6.2466711],[-75.5922251,6.2467843],[-75.5923482,6.2467711],[-75.5923361,6.2466579]]]},"properties":{"id":"c5ae75ec-0d58-4bb3-8fa4-43da7d57a464","version":1,"sources":[{"property":"","dataset":"Google Open Buildings","license":null,"record_id":"67R66CW5+M3QR","update_time":"2023-05-01T00:00:00.000Z","confidence":0.8842,"between":null}],"has_parts":false,"is_underground":false}},
{"type":"Feature","geometry":{"type":"Polygon","coordinates":[[[-75.5922247,6.2465722],[-75.5920655,6.246627],[-75.5921601,6.246897],[-75.5922395,6.2468697],[-75.5921724,6.2466741],[-75.5922505,6.2466473],[-75.5922247,6.2465722]]]},"properties":{"id":"12b213f4-7818-4bda-a4d9-463c136d555e","version":1,"sources":[{"property":"","dataset":"Google Open Buildings","license":null,"record_id":"67R66CW5+M4PX","update_time":"2023-05-01T00:00:00.000Z","confidence":0.7795,"between":null}],"has_parts":false,"is_underground":false}},
{"type":"Feature","geometry":{"type":"Polygon","coordinates":[[[-75.5923535,6.2468203],[-75.5922945,6.2468266],[-75.5923008,6.2468856],[-75.5923598,6.2468792],[-75.5923535,6.2468203]]]},"properties":{"id":"8fb36a00-a2a8-4a2e-ab35-ae62b7652a78","version":1,"sources":[{"property":"","dataset":"Google Open Buildings","license":null,"record_id":"67R66CW5+P3V4","update_time":"2023-05-01T00:00:00.000Z","confidence":0.7086,"between":null}],"has_parts":false,"is_underground":false}},
{"type":"Feature","geometry":{"type":"Polygon","coordinates":[[[-75.5923678,6.2469537],[-75.5922164,6.24697],[-75.5922253,6.2470531],[-75.5923768,6.2470368],[-75.5923678,6.2469537]]]},"properties":{"id":"89ae1cd5-1a0e-49a3-8cee-c74aa03e9085","version":1,"sources":[{"property":"","dataset":"Google Open Buildings","license":null,"record_id":"67R66CW5+R344","update_time":"2023-05-01T00:00:00.000Z","confidence":0.7968,"between":null}],"has_parts":false,"is_underground":false}},
{"type":"Feature","geometry":{"type":"Polygon","coordinates":[[[-75.5923598,6.2468792],[-75.5922367,6.2468925],[-75.5922395,6.2469193],[-75.5920902,6.2469353],[-75.5920917,6.2469491],[-75.5921061,6.2469476],[-75.5921098,6.2469815],[-75.5923678,6.2469537],[-75.5923598,6.2468792]]]},"properties":{"id":"d7080011-1aaf-4301-ba31-6af52603c7a5","version":1,"sources":[{"property":"","dataset":"Google Open Buildings","license":null,"record_id":"67R66CW5+Q4C6","update_time":"2023-05-01T00:00:00.000Z","confidence":0.712,"between":null}],"has_parts":false,"is_underground":false}},
{"type":"Feature","geometry":{"type":"Polygon","coordinates":[[[-75.5923768,6.2470368],[-75.592171,6.247059],[-75.5921806,6.2471487],[-75.5923864,6.2471266],[-75.5923768,6.2470368]]]},"properties":{"id":"c7d6fe96-3718-4f3f-9e99-dd8bd9308561","version":1,"sources":[{"property":"","dataset":"Google Open Buildings","license":null,"record_id":"67R66CW5+R3QJ","update_time":"2023-05-01T00:00:00.000Z","confidence":0.8599,"between":null}],"has_parts":false,"is_underground":false}},
{"type":"Feature","geometry":{"type":"Polygon","coordinates":[[[-75.5922164,6.24697],[-75.5920652,6.2469863],[-75.5920741,6.2470694],[-75.5922253,6.2470531],[-75.5922164,6.24697]]]},"properties":{"id":"933314e6-9471-4cc8-b3ac-bc56972a33e7","version":1,"sources":[{"property":"","dataset":"Google Open Buildings","license":null,"record_id":"67R66CW5+R45M","update_time":"2023-05-01T00:00:00.000Z","confidence":0.7765,"between":null}],"has_parts":false,"is_underground":false}},
{"type":"Feature","geometry":{"type":"Polygon","coordinates":[[[-75.5918024,6.2462997],[-75.5916583,6.2463659],[-75.5917476,6.2465606],[-75.5918917,6.2464945],[-75.5918024,6.2462997]]]},"properties":{"id":"72514ab0-09ea-4e7a-bda3-fef09a4cafc2","version":1,"sources":[{"property":"","dataset":"Google Open Buildings","license":null,"record_id":"67R66CW5+H7H6","update_time":"2023-05-01T00:00:00.000Z","confidence":0.7685,"between":null}],"has_parts":false,"is_underground":false}},
{"type":"Feature","geometry":{"type":"Polygon","coordinates":[[[-75.5920655,6.246627],[-75.5919904,6.2466528],[-75.5920433,6.2468039],[-75.5921183,6.2467776],[-75.5920655,6.246627]]]},"properties":{"id":"8537d25a-c9c2-48e2-bb7b-6daa8815ad1e","version":1,"sources":[{"property":"","dataset":"Google Open Buildings","license":null,"record_id":"67R66CW5+M5PM","update_time":"2023-05-01T00:00:00.000Z","confidence":0.8603,"between":null}],"has_parts":false,"is_underground":false}},
{"type":"Feature","geometry":{"type":"Polygon","coordinates":[[[-75.5919063,6.2466983],[-75.5918427,6.2467205],[-75.5918631,6.2467805],[-75.5919273,6.2467584],[-75.5919063,6.2466983]]]},"properties":{"id":"b43688a7-0a0e-4b27-b7ec-838e86d23389","version":1,"sources":[{"property":"","dataset":"Google Open Buildings","license":null,"record_id":"67R66CW5+M6XG","update_time":"2023-05-01T00:00:00.000Z","confidence":0.8055,"between":null}],"has_parts":false,"is_underground":false}},
{"type":"Feature","geometry":{"type":"Polygon","coordinates":[[[-75.5913597,6.2467126],[-75.5915349,6.2466349],[-75.5915051,6.2465684],[-75.5913752,6.246626],[-75.5913298,6.2466461],[-75.5913597,6.2467126]]]},"properties":{"id":"a361f485-c570-4419-a946-e8120b406f98","version":1,"sources":[{"property":"","dataset":"OpenStreetMap","license":"ODbL-1.0","record_id":"w1374080362@1","update_time":"2025-04-02T09:00:08.000Z","confidence":null,"between":null}],"has_parts":false,"is_underground":false}},
{"type":"Feature","geometry":{"type":"Polygon","coordinates":[[[-75.5921208,6.2467836],[-75.5920436,6.2468064],[-75.5920628,6.2468715],[-75.59214,6.2468487],[-75.5921208,6.2467836]]]},"properties":{"id":"631c6845-f23d-4b06-95c2-958a4191c790","version":1,"sources":[{"property":"","dataset":"Google Open Buildings","license":null,"record_id":"67R66CW5+P5M2","update_time":"2023-05-01T00:00:00.000Z","confidence":0.7098,"between":null}],"has_parts":false,"is_underground":false}},
{"type":"Feature","geometry":{"type":"Polygon","coordinates":[[[-75.5919896,6.2466649],[-75.5919176,6.2466907],[-75.5919997,6.24692],[-75.5920717,6.2468942],[-75.5920568,6.2468527],[-75.5920302,6.2468622],[-75.5920151,6.2468202],[-75.5920418,6.2468106],[-75.5919896,6.2466649]]]},"properties":{"id":"874e70c7-6c36-4022-a9e9-2f06e656c2c5","version":1,"sources":[{"property":"","dataset":"Google Open Buildings","license":null,"record_id":"67R66CW5+P66F","update_time":"2023-05-01T00:00:00.000Z","confidence":0.8262,"between":null}],"has_parts":false,"is_underground":false}},
{"type":"Feature","geometry":{"type":"Polygon","coordinates":[[[-75.5921252,6.2468651],[-75.5920564,6.2468796],[-75.5920643,6.246917],[-75.592133,6.2469026],[-75.5921252,6.2468651]]]},"properties":{"id":"e4dd57be-ac5a-4cc6-91ba-7c1de1d20a18","version":1,"sources":[{"property":"","dataset":"Google Open Buildings","license":null,"record_id":"67R66CW5+Q52Q","update_time":"2023-05-01T00:00:00.000Z","confidence":0.7275,"between":null}],"has_parts":false,"is_underground":false}},
{"type":"Feature","geometry":{"type":"Polygon","coordinates":[[[-75.5919423,6.2467598],[-75.5918641,6.2467877],[-75.5918528,6.246756],[-75.5918269,6.2467652],[-75.5918804,6.2469159],[-75.5919848,6.2468785],[-75.5919423,6.2467598]]]},"properties":{"id":"d7203d56-52b8-4761-b7e0-b122be05108c","version":1,"sources":[{"property":"","dataset":"Google Open Buildings","license":null,"record_id":"67R66CW5+P6P9","update_time":"2023-05-01T00:00:00.000Z","confidence":0.7349,"between":null}],"has_parts":false,"is_underground":false}},
{"type":"Feature","geometry":{"type":"Polygon","coordinates":[[[-75.5918427,6.2467205],[-75.591784,6.2467409],[-75.5918484,6.2469298],[-75.5918764,6.2469203],[-75.5918227,6.2467627],[-75.5918535,6.2467523],[-75.5918427,6.2467205]]]},"properties":{"id":"f2ab52e8-0680-4e90-8ee7-71a790937ee2","version":1,"sources":[{"property":"","dataset":"Google Open Buildings","license":null,"record_id":"67R66CW5+P7FM","update_time":"2023-05-01T00:00:00.000Z","confidence":0.7564,"between":null}],"has_parts":false,"is_underground":false}},
{"type":"Feature","geometry":{"type":"Polygon","coordinates":[[[-75.5918348,6.2469304],[-75.5917875,6.2469274],[-75.591785,6.246967],[-75.5918323,6.24697],[-75.5918348,6.2469304]]]},"properties":{"id":"92590d1c-1c59-414b-bc87-5a0245f98c67","version":1,"sources":[{"property":"","dataset":"Google Open Buildings","license":null,"record_id":"67R66CW5+Q7GR","update_time":"2023-05-01T00:00:00.000Z","confidence":0.6865,"between":null}],"has_parts":false,"is_underground":false}},
{"type":"Feature","geometry":{"type":"Polygon","coordinates":[[[-75.5918469,6.2470236],[-75.5918518,6.2469744],[-75.5917981,6.2469691],[-75.5917933,6.2470183],[-75.5918469,6.2470236]]]},"properties":{"id":"370f6c3c-9153-424d-bfd3-9aab73ada36a","version":1,"sources":[{"property":"","dataset":"Google Open Buildings","license":null,"record_id":"67R66CW5+Q7VW","update_time":"2023-05-01T00:00:00.000Z","confidence":0.6637,"between":null}],"has_parts":false,"is_underground":false}},
{"type":"Feature","geometry":{"type":"Polygon","coordinates":[[[-75.5919534,6.247119],[-75.5919656,6.2470288],[-75.5918626,6.2470148],[-75.5918536,6.2470812],[-75.5917864,6.2470721],[-75.5917832,6.2470959],[-75.5919534,6.247119]]]},"properties":{"id":"13827ca5-cfff-44da-a769-00be0f751978","version":1,"sources":[{"property":"","dataset":"Google Open Buildings","license":null,"record_id":"67R66CW5+R6HV","update_time":"2023-05-01T00:00:00.000Z","confidence":0.8396,"between":null}],"has_parts":false,"is_underground":false}},
{"type":"Feature","geometry":{"type":"Polygon","coordinates":[[[-75.5918155,6.2470121],[-75.5917887,6.2470088],[-75.5917825,6.247064],[-75.591809,6.2470672],[-75.5918155,6.2470121]]]},"properties":{"id":"f7f1361d-7637-4272-a60a-3815a1a82599","version":1,"sources":[{"property":"","dataset":"Google Open Buildings","license":null,"record_id":"67R66CW5+R78F","update_time":"2023-05-01T00:00:00.000Z","confidence":0.7001,"between":null}],"has_parts":false,"is_underground":false}},
{"type":"Feature","geometry":{"type":"Polygon","coordinates":[[[-75.5916601,6.2467842],[-75.5916792,6.2468431],[-75.5917256,6.2468281],[-75.5917563,6.2469228],[-75.5918324,6.2468981],[-75.5917828,6.2467445],[-75.5916601,6.2467842]]]},"properties":{"id":"d95d4739-1631-4337-845f-e4da97403b2c","version":1,"sources":[{"property":"","dataset":"Google Open Buildings","license":null,"record_id":"67R66CW5+P7Q5","update_time":"2023-05-01T00:00:00.000Z","confidence":0.7451,"between":null}],"has_parts":false,"is_underground":false}},
{"type":"Feature","geometry":{"type":"Polygon","coordinates":[[[-75.59166,6.2468358],[-75.5916526,6.2469047],[-75.5917355,6.2469135],[-75.5917424,6.246844],[-75.59166,6.2468358]]]},"properties":{"id":"a0bfe0e1-721b-4153-b8d7-cc672e68f162","version":1,"sources":[{"property":"","dataset":"Google Open Buildings","license":null,"record_id":"67R66CW5+P8VW","update_time":"2023-05-01T00:00:00.000Z","confidence":0.736,"between":null}],"has_parts":false,"is_underground":false}},
{"type":"Feature","geometry":{"type":"Polygon","coordinates":[[[-75.5916328,6.2468331],[-75.5916255,6.2469018],[-75.5916526,6.2469047],[-75.59166,6.2468358],[-75.5916328,6.2468331]]]},"properties":{"id":"d89b9cdf-d204-4f09-9d4d-4628e76e0b75","version":1,"sources":[{"property":"","dataset":"Google Open Buildings","license":null,"record_id":"67R66CW5+P8XM","update_time":"2023-05-01T00:00:00.000Z","confidence":0.7533,"between":null}],"has_parts":false,"is_underground":false}},
{"type":"Feature","geometry":{"type":"Polygon","coordinates":[[[-75.5916522,6.2469151],[-75.5916451,6.2469916],[-75.5917842,6.2470037],[-75.591791,6.2469264],[-75.5916522,6.2469151]]]},"properties":{"id":"59815448-17dc-4272-8645-c559771821c5","version":1,"sources":[{"property":"","dataset":"Google Open Buildings","license":null,"record_id":"67R66CW5+Q8M6","update_time":"2023-05-01T00:00:00.000Z","confidence":0.8109,"between":null}],"has_parts":false,"is_underground":false}},
{"type":"Feature","geometry":{"type":"Polygon","coordinates":[[[-75.5916757,6.2469975],[-75.5916696,6.2470847],[-75.5917781,6.2470924],[-75.5917843,6.2470052],[-75.5916757,6.2469975]]]},"properties":{"id":"49171c29-d7bd-4638-b7d9-3620c5d375c2","version":1,"sources":[{"property":"","dataset":"Google Open Buildings","license":null,"record_id":"67R66CW5+R86P","update_time":"2023-05-01T00:00:00.000Z","confidence":0.8792,"between":null}],"has_parts":false,"is_underground":false}},
{"type":"Feature","geometry":{"type":"Polygon","coordinates":[[[-75.5923847,6.2471273],[-75.5922332,6.2471426],[-75.5922437,6.2472466],[-75.5923952,6.2472313],[-75.5923847,6.2471273]]]},"properties":{"id":"45d95e52-d54d-409a-815c-3e028d8e2972","version":1,"sources":[{"property":"","dataset":"Google Open Buildings","license":null,"record_id":"67R66CW5+V3FH","update_time":"2023-05-01T00:00:00.000Z","confidence":0.8487,"between":null}],"has_parts":false,"is_underground":false}},
{"type":"Feature","geometry":{"type":"Polygon","coordinates":[[[-75.5921514,6.2471554],[-75.5921394,6.2473131],[-75.5924014,6.247333],[-75.5924077,6.2472497],[-75.5922312,6.2472363],[-75.5922379,6.2471478],[-75.5922165,6.2471462],[-75.5922154,6.2471603],[-75.5921514,6.2471554]]]},"properties":{"id":"c10a3ea7-f53c-456e-9949-3222bab1c70a","version":1,"sources":[{"property":"","dataset":"Google Open Buildings","license":null,"record_id":"67R66CW5+W35H","update_time":"2023-05-01T00:00:00.000Z","confidence":0.8307,"between":null}],"has_parts":false,"is_underground":false}},
{"type":"Feature","geometry":{"type":"Polygon","coordinates":[[[-75.5923,6.2475393],[-75.5923018,6.2476006],[-75.59246,6.247596],[-75.5924581,6.2475347],[-75.5923,6.2475393]]]},"properties":{"id":"39dad12c-e061-46c1-8bd9-a2611e4f0764","version":3,"sources":[{"property":"","dataset":"Microsoft ML Buildings","license":"ODbL-1.0","record_id":null,"update_time":"2023-04-14T00:00:00.000Z","confidence":null,"between":null}],"has_parts":false,"is_underground":false}},
{"type":"Feature","geometry":{"type":"Polygon","coordinates":[[[-75.5922808,6.2475032],[-75.5922058,6.2475062],[-75.5922088,6.2475781],[-75.5922838,6.247575],[-75.5922808,6.2475032]]]},"properties":{"id":"7fb901ed-930d-41e4-8057-73ed8f1fed99","version":3,"sources":[{"property":"","dataset":"Microsoft ML Buildings","license":"ODbL-1.0","record_id":null,"update_time":"2023-04-14T00:00:00.000Z","confidence":null,"between":null}],"has_parts":false,"is_underground":false}},
{"type":"Feature","geometry":{"type":"Polygon","coordinates":[[[-75.5921854,6.2476589],[-75.5922015,6.2475005],[-75.5921112,6.2474915],[-75.5920952,6.2476499],[-75.5921854,6.2476589]]]},"properties":{"id":"6b52b48b-f3b3-4320-87b4-2f2a811ef390","version":3,"sources":[{"property":"","dataset":"Microsoft ML Buildings","license":"ODbL-1.0","record_id":null,"update_time":"2023-04-14T00:00:00.000Z","confidence":null,"between":null}],"has_parts":false,"is_underground":false}},
{"type":"Feature","geometry":{"type":"Polygon","coordinates":[[[-75.5924567,6.2476084],[-75.5922932,6.2476029],[-75.5922894,6.2477174],[-75.5920054,6.247708],[-75.5920037,6.2477559],[-75.5924512,6.2477708],[-75.5924567,6.2476084]]]},"properties":{"id":"0735f984-5d0a-4289-8a78-2d1c5ddbb605","version":3,"sources":[{"property":"","dataset":"Microsoft ML Buildings","license":"ODbL-1.0","record_id":null,"update_time":"2023-04-14T00:00:00.000Z","confidence":null,"between":null}],"has_parts":false,"is_underground":false}},
{"type":"Feature","geometry":{"type":"Polygon","coordinates":[[[-75.5921579,6.2472085],[-75.5921426,6.2470615],[-75.5920719,6.2470689],[-75.5920872,6.2472159],[-75.5921579,6.2472085]]]},"properties":{"id":"f88c9d9b-921a-4dd6-9852-f12a44d5a52f","version":1,"sources":[{"property":"","dataset":"Google Open Buildings","license":null,"record_id":"67R66CW5+V52F","update_time":"2023-05-01T00:00:00.000Z","confidence":0.7955,"between":null}],"has_parts":false,"is_underground":false}},
{"type":"Feature","geometry":{"type":"Polygon","coordinates":[[[-75.5920827,6.2472129],[-75.5920701,6.2473054],[-75.5921316,6.2473138],[-75.5921442,6.2472213],[-75.5920827,6.2472129]]]},"properties":{"id":"3198508d-665c-4e39-b5e6-be059daee8be","version":1,"sources":[{"property":"","dataset":"Google Open Buildings","license":null,"record_id":"67R66CW5+W52G","update_time":"2023-05-01T00:00:00.000Z","confidence":0.8278,"between":null}],"has_parts":false,"is_underground":false}},
{"type":"Feature","geometry":{"type":"Polygon","coordinates":[[[-75.5920767,6.2471155],[-75.5919952,6.247107],[-75.5919789,6.247259],[-75.5920603,6.2472675],[-75.5920767,6.2471155]]]},"properties":{"id":"dd75521c-0522-4796-bb3f-eb2d5c8ef549","version":1,"sources":[{"property":"","dataset":"Google Open Buildings","license":null,"record_id":"67R66CW5+V5HC","update_time":"2023-05-01T00:00:00.000Z","confidence":0.8895,"between":null}],"has_parts":false,"is_underground":false}},
{"type":"Feature","geometry":{"type":"Polygon","coordinates":[[[-75.5919934,6.2471232],[-75.5919377,6.2471173],[-75.5919342,6.2471496],[-75.5919044,6.2471466],[-75.5918909,6.2472731],[-75.5919764,6.2472822],[-75.5919934,6.2471232]]]},"properties":{"id":"79bc981b-feb7-4fcb-bc0b-f8d73f6637b6","version":1,"sources":[{"property":"","dataset":"Google Open Buildings","license":null,"record_id":"67R66CW5+V6M5","update_time":"2023-05-01T00:00:00.000Z","confidence":0.7722,"between":null}],"has_parts":false,"is_underground":false}},
{"type":"Feature","geometry":{"type":"Polygon","coordinates":[[[-75.5918699,6.2471461],[-75.5918235,6.2471419],[-75.5918111,6.2472785],[-75.591887,6.247285],[-75.5918974,6.24717],[-75.5918679,6.2471674],[-75.5918699,6.2471461]]]},"properties":{"id":"fd132788-128f-4cd6-9960-a67352949774","version":1,"sources":[{"property":"","dataset":"Google Open Buildings","license":null,"record_id":"67R66CW5+V7JP","update_time":"2023-05-01T00:00:00.000Z","confidence":0.7132,"between":null}],"has_parts":false,"is_underground":false}},
{"type":"Feature","geometry":{"type":"Polygon","coordinates":[[[-75.5916583,6.2471815],[-75.5917699,6.2471926],[-75.5917726,6.247166],[-75.5918127,6.24717],[-75.5918193,6.2471046],[-75.5916676,6.2470884],[-75.5916583,6.2471815]]]},"properties":{"id":"ab992e41-233f-42de-af35-41e6e1c2536f","version":1,"sources":[{"property":"","dataset":"Google Open Buildings","license":null,"record_id":"67R66CW5+V82G","update_time":"2023-05-01T00:00:00.000Z","confidence":0.8593,"between":null}],"has_parts":false,"is_underground":false}},
{"type":"Feature","geometry":{"type":"Polygon","coordinates":[[[-75.5916282,6.2471785],[-75.5916216,6.2472443],[-75.5918034,6.2472637],[-75.5918101,6.2471967],[-75.5916282,6.2471785]]]},"properties":{"id":"a1e2e4bf-6697-47be-9c59-5021e6c25c44","version":1,"sources":[{"property":"","dataset":"Google Open Buildings","license":null,"record_id":"67R66CW5+V8MR","update_time":"2023-05-01T00:00:00.000Z","confidence":0.7763,"between":null}],"has_parts":false,"is_underground":false}},
{"type":"Feature","geometry":{"type":"Polygon","coordinates":[[[-75.5919854,6.2476314],[-75.5920793,6.2475861],[-75.5920809,6.247459],[-75.5919876,6.2474578],[-75.5919854,6.2476314]]]},"properties":{"id":"5c2ffd7b-b9b8-45bf-8e58-2363a60d1738","version":1,"sources":[{"property":"","dataset":"OpenStreetMap","license":"ODbL-1.0","record_id":"w788310421@1","update_time":"2020-04-05T23:32:07.000Z","confidence":null,"between":null}],"has_parts":false,"is_underground":false}},
{"type":"Feature","geometry":{"type":"Polygon","coordinates":[[[-75.5918153,6.2475631],[-75.5918997,6.2475703],[-75.5919023,6.2475408],[-75.5919479,6.2475328],[-75.5919556,6.2474428],[-75.5918266,6.2474318],[-75.5918153,6.2475631]]]},"properties":{"id":"ea0a9ae6-357c-4048-bb59-88875c226670","version":1,"sources":[{"property":"","dataset":"OpenStreetMap","license":"ODbL-1.0","record_id":"w788310423@1","update_time":"2020-04-05T23:32:07.000Z","confidence":null,"between":null}],"has_parts":false,"is_underground":false}},
{"type":"Feature","geometry":{"type":"Polygon","coordinates":[[[-75.5919025,6.247556],[-75.5918988,6.2475971],[-75.5919303,6.2475999],[-75.5919339,6.2475588],[-75.5919025,6.247556]]]},"properties":{"id":"e16caaac-7c34-47e9-b37d-4a7ed53b4776","version":1,"sources":[{"property":"","dataset":"Google Open Buildings","license":null,"record_id":"67R66CX5+26P4","update_time":"2023-05-01T00:00:00.000Z","confidence":0.6901,"between":null}],"has_parts":false,"is_underground":false}},
{"type":"Feature","geometry":{"type":"Polygon","coordinates":[[[-75.5919606,6.2475817],[-75.5919249,6.2475828],[-75.5919262,6.2476233],[-75.5919619,6.2476221],[-75.5919606,6.2475817]]]},"properties":{"id":"bd14e85c-89c1-4a17-bf19-77635ae352a8","version":1,"sources":[{"property":"","dataset":"Google Open Buildings","license":null,"record_id":"67R66CX5+26V5","update_time":"2023-05-01T00:00:00.000Z","confidence":0.7899,"between":null}],"has_parts":false,"is_underground":false}},
{"type":"Feature","geometry":{"type":"Polygon","coordinates":[[[-75.591975,6.2476507],[-75.5919722,6.2476786],[-75.5920359,6.247685],[-75.5920387,6.2476571],[-75.591975,6.2476507]]]},"properties":{"id":"8e475e0a-f07f-40bd-b3dd-edc737b71cde","version":1,"sources":[{"property":"","dataset":"Google Open Buildings","license":null,"record_id":"67R66CX5+359Q","update_time":"2023-05-01T00:00:00.000Z","confidence":0.6507,"between":null}],"has_parts":false,"is_underground":false}},
{"type":"Feature","geometry":{"type":"Polygon","coordinates":[[[-75.5919401,6.2476935],[-75.5918742,6.2476882],[-75.5918655,6.247796],[-75.5919175,6.2478002],[-75.5919207,6.2477603],[-75.5919345,6.2477615],[-75.5919401,6.2476935]]]},"properties":{"id":"ce10cb58-0c42-4c91-a22a-c2f30603004b","version":1,"sources":[{"property":"","dataset":"Google Open Buildings","license":null,"record_id":"67R66CX5+36XJ","update_time":"2023-05-01T00:00:00.000Z","confidence":0.8065,"between":null}],"has_parts":false,"is_underground":false}},
{"type":"Feature","geometry":{"type":"Polygon","coordinates":[[[-75.5915467,6.2476015],[-75.5917384,6.2476152],[-75.591746,6.24751],[-75.5915543,6.2474963],[-75.5915467,6.2476015]]]},"properties":{"id":"adc498e4-0680-428d-adc1-b9ab6ace4ff2","version":1,"sources":[{"property":"","dataset":"OpenStreetMap","license":"ODbL-1.0","record_id":"w788310422@1","update_time":"2020-04-05T23:32:07.000Z","confidence":null,"between":null}],"has_parts":false,"is_underground":false}},
{"type":"Feature","geometry":{"type":"Polygon","coordinates":[[[-75.5915677,6.2476829],[-75.5915627,6.2477445],[-75.5917104,6.2477566],[-75.5917154,6.2476949],[-75.5915677,6.2476829]]]},"properties":{"id":"188c3365-49a4-441e-9d12-bf961de6a73d","version":1,"sources":[{"property":"","dataset":"Google Open Buildings","license":null,"record_id":"67R66CX5+38QP","update_time":"2023-05-01T00:00:00.000Z","confidence":0.7808,"between":null}],"has_parts":false,"is_underground":false}},
{"type":"Feature","geometry":{"type":"Polygon","coordinates":[[[-75.5916468,6.2477451],[-75.5916191,6.2477418],[-75.5916128,6.2477949],[-75.5916405,6.2477982],[-75.5916468,6.2477451]]]},"properties":{"id":"71c90a47-5602-4c3b-9471-6201b9eb3e66","version":1,"sources":[{"property":"","dataset":"Google Open Buildings","license":null,"record_id":"67R66CX5+485Q","update_time":"2023-05-01T00:00:00.000Z","confidence":0.6525,"between":null}],"has_parts":false,"is_underground":false}},
{"type":"Feature","geometry":{"type":"Polygon","coordinates":[[[-75.591552,6.2477437],[-75.5915483,6.2477902],[-75.5915589,6.247791],[-75.5915569,6.2478164],[-75.5916159,6.2478212],[-75.5916218,6.2477493],[-75.591552,6.2477437]]]},"properties":{"id":"402235b4-2205-473d-bebf-fe2d05b76abd","version":1,"sources":[{"property":"","dataset":"Google Open Buildings","license":null,"record_id":"67R66CX5+4977","update_time":"2023-05-01T00:00:00.000Z","confidence":0.7529,"between":null}],"has_parts":false,"is_underground":false}},
{"type":"Feature","geometry":{"type":"Polygon","coordinates":[[[-75.5921664,6.2478223],[-75.5924245,6.2478417],[-75.5924276,6.2478008],[-75.5921694,6.2477815],[-75.5921664,6.2478223]]]},"properties":{"id":"5c47f63d-37f8-4b0f-b374-0a885a334545","version":1,"sources":[{"property":"","dataset":"Google Open Buildings","license":null,"record_id":"67R66CX5+43GF","update_time":"2023-05-01T00:00:00.000Z","confidence":0.8268,"between":null}],"has_parts":false,"is_underground":false}},
{"type":"Feature","geometry":{"type":"Polygon","coordinates":[[[-75.5921664,6.2478223],[-75.5921642,6.2478514],[-75.5921941,6.2478536],[-75.5921916,6.247887],[-75.5924198,6.2479041],[-75.5924245,6.2478417],[-75.5921664,6.2478223]]]},"properties":{"id":"779bec61-67dc-4458-9046-868d923abd37","version":1,"sources":[{"property":"","dataset":"Google Open Buildings","license":null,"record_id":"67R66CX5+43WF","update_time":"2023-05-01T00:00:00.000Z","confidence":0.8333,"between":null}],"has_parts":false,"is_underground":false}},
{"type":"Feature","geometry":{"type":"Polygon","coordinates":[[[-75.5921022,6.2479556],[-75.592179,6.2479618],[-75.5921799,6.2479499],[-75.5924194,6.2479693],[-75.5924243,6.2479084],[-75.5921654,6.2478874],[-75.5921628,6.2479203],[-75.5921055,6.2479156],[-75.5921022,6.2479556]]]},"properties":{"id":"45c91218-edf3-4daa-bc60-162203678a1a","version":1,"sources":[{"property":"","dataset":"Google Open Buildings","license":null,"record_id":"67R66CX5+53H3","update_time":"2023-05-01T00:00:00.000Z","confidence":0.7892,"between":null}],"has_parts":false,"is_underground":false}},
{"type":"Feature","geometry":{"type":"Polygon","coordinates":[[[-75.5922931,6.248083],[-75.5923843,6.2480868],[-75.5923884,6.2479881],[-75.5922973,6.2479842],[-75.5922931,6.248083]]]},"properties":{"id":"95bd4cd2-7d6c-4e38-af07-91b510a4ed5c","version":1,"sources":[{"property":"","dataset":"OpenStreetMap","license":"ODbL-1.0","record_id":"w788310418@1","update_time":"2020-04-05T23:32:07.000Z","confidence":null,"between":null}],"has_parts":false,"is_underground":false}},
{"type":"Feature","geometry":{"type":"Polygon","coordinates":[[[-75.5921374,6.2480668],[-75.592274,6.2480732],[-75.5922783,6.2479797],[-75.5921418,6.2479734],[-75.5921374,6.2480668]]]},"properties":{"id":"9c98d851-28af-4cf5-a18f-d795b515842b","version":1,"sources":[{"property":"","dataset":"OpenStreetMap","license":"ODbL-1.0","record_id":"w788310419@1","update_time":"2020-04-05T23:32:07.000Z","confidence":null,"between":null}],"has_parts":false,"is_underground":false}},
{"type":"Feature","geometry":{"type":"Polygon","coordinates":[[[-75.5924881,6.2483867],[-75.592481,6.2484544],[-75.5925607,6.2484628],[-75.5925678,6.2483951],[-75.5924881,6.2483867]]]},"properties":{"id":"b5c28c90-a025-454b-9003-2f0120b7cbb2","version":1,"sources":[{"property":"","dataset":"Google Open Buildings","license":null,"record_id":"67R66CX4+9X9R","update_time":"2023-05-01T00:00:00.000Z","confidence":0.7402,"between":null}],"has_parts":false,"is_underground":false}},
{"type":"Feature","geometry":{"type":"Polygon","coordinates":[[[-75.5922498,6.2481884],[-75.5921605,6.2481914],[-75.5921643,6.2483065],[-75.5922282,6.2483045],[-75.592227,6.2482673],[-75.5922523,6.2482664],[-75.5922498,6.2481884]]]},"properties":{"id":"83adcd93-8d42-491d-8983-ffd449b2790e","version":1,"sources":[{"property":"","dataset":"Google Open Buildings","license":null,"record_id":"67R66CX5+74VM","update_time":"2023-05-01T00:00:00.000Z","confidence":0.7696,"between":null}],"has_parts":false,"is_underground":false}},
{"type":"Feature","geometry":{"type":"Polygon","coordinates":[[[-75.5923107,6.2483018],[-75.5921763,6.2483187],[-75.5921888,6.2484187],[-75.5923232,6.2484019],[-75.5923107,6.2483018]]]},"properties":{"id":"df53d792-cd21-4bf5-85da-fd5d9cd74567","version":1,"sources":[{"property":"","dataset":"Google Open Buildings","license":null,"record_id":"67R66CX5+84RC","update_time":"2023-05-01T00:00:00.000Z","confidence":0.8798,"between":null}],"has_parts":false,"is_underground":false}},
{"type":"Feature","geometry":{"type":"Polygon","coordinates":[[[-75.5921899,6.2483925],[-75.5920627,6.24841],[-75.5920754,6.2485021],[-75.5922025,6.2484847],[-75.5921899,6.2483925]]]},"properties":{"id":"08d3b054-f3b3-4978-85c9-645464c8f6fb","version":1,"sources":[{"property":"","dataset":"Google Open Buildings","license":null,"record_id":"67R66CX5+94HX","update_time":"2023-05-01T00:00:00.000Z","confidence":0.8881,"between":null}],"has_parts":false,"is_underground":false}},
{"type":"Feature","geometry":{"type":"Polygon","coordinates":[[[-75.591999,6.2477667],[-75.5919904,6.2478731],[-75.5921081,6.2478827],[-75.5921119,6.247836],[-75.5921692,6.2478407],[-75.5921741,6.2477809],[-75.591999,6.2477667]]]},"properties":{"id":"4347ba54-3034-4cbd-abbb-cd9066c30c1b","version":1,"sources":[{"property":"","dataset":"Google Open Buildings","license":null,"record_id":"67R66CX5+45FW","update_time":"2023-05-01T00:00:00.000Z","confidence":0.7412,"between":null}],"has_parts":false,"is_underground":false}},
{"type":"Feature","geometry":{"type":"Polygon","coordinates":[[[-75.5919818,6.2477166],[-75.5919385,6.2477131],[-75.5919135,6.2480207],[-75.591978,6.248026],[-75.5919965,6.2477975],[-75.5919753,6.2477957],[-75.5919818,6.2477166]]]},"properties":{"id":"fbf750c9-e421-4650-9cc6-b8c00e3a023c","version":1,"sources":[{"property":"","dataset":"Google Open Buildings","license":null,"record_id":"67R66CX5+5633","update_time":"2023-05-01T00:00:00.000Z","confidence":0.7329,"between":null}],"has_parts":false,"is_underground":false}},
{"type":"Feature","geometry":{"type":"Polygon","coordinates":[[[-75.591769,6.2477881],[-75.5917577,6.2479275],[-75.5918541,6.2479354],[-75.5918574,6.2478954],[-75.5919094,6.2478997],[-75.5919159,6.2478201],[-75.5919297,6.2478212],[-75.5919313,6.2478013],[-75.5918655,6.247796],[-75.5918639,6.2478158],[-75.5918233,6.2478125],[-75.5918249,6.2477927],[-75.591769,6.2477881]]]},"properties":{"id":"8ce561dc-6229-4fbe-ba92-1290a1149515","version":1,"sources":[{"property":"","dataset":"Google Open Buildings","license":null,"record_id":"67R66CX5+47V7","update_time":"2023-05-01T00:00:00.000Z","confidence":0.7348,"between":null}],"has_parts":false,"is_underground":false}},
{"type":"Feature","geometry":{"type":"Polygon","coordinates":[[[-75.5920037,6.2479475],[-75.5919972,6.2480275],[-75.5920957,6.2480356],[-75.5921022,6.2479556],[-75.5920037,6.2479475]]]},"properties":{"id":"e4fe9ff6-6720-40aa-b57b-e33e448dfadd","version":1,"sources":[{"property":"","dataset":"Google Open Buildings","license":null,"record_id":"67R66CX5+55WM","update_time":"2023-05-01T00:00:00.000Z","confidence":0.7486,"between":null}],"has_parts":false,"is_underground":false}},
{"type":"Feature","geometry":{"type":"Polygon","coordinates":[[[-75.591769,6.2477881],[-75.5917083,6.2477832],[-75.5916979,6.2479107],[-75.5917586,6.2479156],[-75.591769,6.2477881]]]},"properties":{"id":"74f391c4-0b26-4589-9653-c4c85da74982","version":1,"sources":[{"property":"","dataset":"Google Open Buildings","license":null,"record_id":"67R66CX5+48JW","update_time":"2023-05-01T00:00:00.000Z","confidence":0.8127,"between":null}],"has_parts":false,"is_underground":false}},
{"type":"Feature","geometry":{"type":"Polygon","coordinates":[[[-75.5915053,6.2479787],[-75.5916782,6.2479899],[-75.5916858,6.247874],[-75.5915129,6.2478628],[-75.5915053,6.2479787]]]},"properties":{"id":"2e930415-186a-4ea2-ab65-e4656e1e0d7a","version":1,"sources":[{"property":"","dataset":"OpenStreetMap","license":"ODbL-1.0","record_id":"w788310420@1","update_time":"2020-04-05T23:32:07.000Z","confidence":null,"between":null}],"has_parts":false,"is_underground":false}},
{"type":"Feature","geometry":{"type":"Polygon","coordinates":[[[-75.5920553,6.2481839],[-75.5920515,6.2482188],[-75.5920743,6.2482213],[-75.5920702,6.2482585],[-75.5921303,6.248265],[-75.5921382,6.248193],[-75.5920553,6.2481839]]]},"properties":{"id":"e125e133-8e87-4208-94d7-6eca945a342c","version":1,"sources":[{"property":"","dataset":"Google Open Buildings","license":null,"record_id":"67R66CX5+75JX","update_time":"2023-05-01T00:00:00.000Z","confidence":0.701,"between":null}],"has_parts":false,"is_underground":false}},
{"type":"Feature","geometry":{"type":"Polygon","coordinates":[[[-75.5920383,6.2481685],[-75.5919804,6.2481622],[-75.5919643,6.2483095],[-75.5920407,6.2483178],[-75.5920553,6.2481839],[-75.5920368,6.2481819],[-75.5920383,6.2481685]]]},"properties":{"id":"d3585b6b-9aee-4234-a8b4-7ec7c3625b3c","version":1,"sources":[{"property":"","dataset":"Google Open Buildings","license":null,"record_id":"67R66CX5+75XP","update_time":"2023-05-01T00:00:00.000Z","confidence":0.7394,"between":null}],"has_parts":false,"is_underground":false}},
{"type":"Feature","geometry":{"type":"Polygon","coordinates":[[[-75.5921668,6.2483209],[-75.5920394,6.2483353],[-75.5920472,6.2484063],[-75.5921748,6.2483919],[-75.5921668,6.2483209]]]},"properties":{"id":"c162d636-24d2-49f6-a8f4-c589f9c3e8a3","version":1,"sources":[{"property":"","dataset":"Google Open Buildings","license":null,"record_id":"67R66CX5+85RG","update_time":"2023-05-01T00:00:00.000Z","confidence":0.7884,"between":null}],"has_parts":false,"is_underground":false}},
{"type":"Feature","geometry":{"type":"Polygon","coordinates":[[[-75.5918623,6.2484287],[-75.5918964,6.2484306],[-75.5919012,6.2483453],[-75.5919579,6.2483485],[-75.5919628,6.2482612],[-75.5917992,6.2482521],[-75.5917922,6.2483751],[-75.591865,6.2483792],[-75.5918623,6.2484287]]]},"properties":{"id":"65d0b798-7c16-4dd2-b2eb-ea49fba037f2","version":1,"sources":[{"property":"","dataset":"OpenStreetMap","license":"ODbL-1.0","record_id":"w788310417@1","update_time":"2020-04-05T23:32:07.000Z","confidence":null,"between":null}],"has_parts":false,"is_underground":false}},
{"type":"Feature","geometry":{"type":"Polygon","coordinates":[[[-75.5919055,6.2484436],[-75.5918689,6.2484436],[-75.5918689,6.2484693],[-75.5919056,6.2484692],[-75.5919055,6.2484436]]]},"properties":{"id":"a13313af-6c00-44e0-ae43-74505809baa9","version":1,"sources":[{"property":"","dataset":"Google Open Buildings","license":null,"record_id":"67R66CX5+96Q8","update_time":"2023-05-01T00:00:00.000Z","confidence":0.7044,"between":null}],"has_parts":false,"is_underground":false}},
{"type":"Feature","geometry":{"type":"Polygon","coordinates":[[[-75.5918593,6.2484342],[-75.5918279,6.2484297],[-75.5918241,6.2484564],[-75.5918555,6.2484609],[-75.5918593,6.2484342]]]},"properties":{"id":"5c79ee59-152a-4436-a37b-0eaf26feb9fb","version":1,"sources":[{"property":"","dataset":"Google Open Buildings","license":null,"record_id":"67R66CX5+97FR","update_time":"2023-05-01T00:00:00.000Z","confidence":0.6572,"between":null}],"has_parts":false,"is_underground":false}},
{"type":"Feature","geometry":{"type":"Polygon","coordinates":[[[-75.5916916,6.2482735],[-75.5917722,6.2482838],[-75.5917813,6.2482129],[-75.5917008,6.2482026],[-75.5916916,6.2482735]]]},"properties":{"id":"67faac39-e68c-4a01-acd9-f8580e570d98","version":1,"sources":[{"property":"","dataset":"OpenStreetMap","license":"ODbL-1.0","record_id":"w788310413@1","update_time":"2020-04-05T23:32:07.000Z","confidence":null,"between":null}],"has_parts":false,"is_underground":false}},
{"type":"Feature","geometry":{"type":"Polygon","coordinates":[[[-75.5914296,6.2482864],[-75.5915226,6.2482928],[-75.5915323,6.2481533],[-75.5914393,6.248147],[-75.5914296,6.2482864]]]},"properties":{"id":"503a10cb-1d08-46a7-ab68-45e7bc48e29a","version":1,"sources":[{"property":"","dataset":"OpenStreetMap","license":"ODbL-1.0","record_id":"w788310412@1","update_time":"2020-04-05T23:32:07.000Z","confidence":null,"between":null}],"has_parts":false,"is_underground":false}},
{"type":"Feature","geometry":{"type":"Polygon","coordinates":[[[-75.5916623,6.2484404],[-75.5917587,6.2484457],[-75.5917641,6.2483498],[-75.5916677,6.2483444],[-75.5916623,6.2484404]]]},"properties":{"id":"5dfe4c42-958a-4fe7-ab79-18ece16cd2a6","version":1,"sources":[{"property":"","dataset":"OpenStreetMap","license":"ODbL-1.0","record_id":"w788310414@1","update_time":"2020-04-05T23:32:07.000Z","confidence":null,"between":null}],"has_parts":false,"is_underground":false}},
{"type":"Feature","geometry":{"type":"Polygon","coordinates":[[[-75.5924726,6.2485352],[-75.5924682,6.2485771],[-75.5925044,6.2485809],[-75.5925088,6.248539],[-75.5924726,6.2485352]]]},"properties":{"id":"6afdcc55-a398-4aec-a6b9-11a87441c21c","version":1,"sources":[{"property":"","dataset":"Google Open Buildings","license":null,"record_id":"67R66CX5+C2C7","update_time":"2023-05-01T00:00:00.000Z","confidence":0.6761,"between":null}],"has_parts":false,"is_underground":false}},
{"type":"Feature","geometry":{"type":"Polygon","coordinates":[[[-75.5926384,6.2484443],[-75.5925703,6.2484372],[-75.592567,6.2484692],[-75.5924804,6.2484601],[-75.5924726,6.2485352],[-75.5925088,6.248539],[-75.5924922,6.2486981],[-75.5925425,6.2487034],[-75.5925591,6.2485443],[-75.5926272,6.2485514],[-75.5926384,6.2484443]]]},"properties":{"id":"79316651-912a-4029-829a-5c58dd4d4a7f","version":1,"sources":[{"property":"","dataset":"Google Open Buildings","license":null,"record_id":"67R66CX4+CX8M","update_time":"2023-05-01T00:00:00.000Z","confidence":0.8551,"between":null}],"has_parts":false,"is_underground":false}},
{"type":"Feature","geometry":{"type":"Polygon","coordinates":[[[-75.5925356,6.2487027],[-75.5924922,6.2486981],[-75.5924781,6.2488328],[-75.5925216,6.2488374],[-75.5925356,6.2487027]]]},"properties":{"id":"3654ee42-d6b6-42ae-82ed-72c76a20910e","version":1,"sources":[{"property":"","dataset":"Google Open Buildings","license":null,"record_id":"67R66CX4+GX5Q","update_time":"2023-05-01T00:00:00.000Z","confidence":0.81,"between":null}],"has_parts":false,"is_underground":false}},
{"type":"Feature","geometry":{"type":"Polygon","coordinates":[[[-75.5924887,6.2487312],[-75.5924525,6.2487274],[-75.5924418,6.248829],[-75.5924781,6.2488328],[-75.5924887,6.2487312]]]},"properties":{"id":"cbde0e7e-ff6f-4be9-aef8-27002c029341","version":1,"sources":[{"property":"","dataset":"Google Open Buildings","license":null,"record_id":"67R66CX5+G276","update_time":"2023-05-01T00:00:00.000Z","confidence":0.7605,"between":null}],"has_parts":false,"is_underground":false}},
{"type":"Feature","geometry":{"type":"Polygon","coordinates":[[[-75.5922248,6.2485457],[-75.5923208,6.2485489],[-75.5923251,6.2484187],[-75.5922658,6.2484168],[-75.5922644,6.2484606],[-75.5922268,6.2484846],[-75.5922248,6.2485457]]]},"properties":{"id":"eac6b6c9-5dea-4c5f-b5b6-ad5bc18d566a","version":1,"sources":[{"property":"","dataset":"OpenStreetMap","license":"ODbL-1.0","record_id":"w788310411@1","update_time":"2020-04-05T23:32:07.000Z","confidence":null,"between":null}],"has_parts":false,"is_underground":false}},
{"type":"Feature","geometry":{"type":"Polygon","coordinates":[[[-75.5922112,6.2484891],[-75.5921466,6.2484965],[-75.5921519,6.2485438],[-75.5922166,6.2485364],[-75.5922112,6.2484891]]]},"properties":{"id":"bd6a6d9c-99a3-4d0d-aad5-6eae67ffd9f0","version":1,"sources":[{"property":"","dataset":"Google Open Buildings","license":null,"record_id":"67R66CX5+C44J","update_time":"2023-05-01T00:00:00.000Z","confidence":0.6663,"between":null}],"has_parts":false,"is_underground":false}},
{"type":"Feature","geometry":{"type":"Polygon","coordinates":[[[-75.5921583,6.248633],[-75.5921549,6.2485585],[-75.5920986,6.248561],[-75.5921021,6.2486355],[-75.5921583,6.248633]]]},"properties":{"id":"885e69f9-37be-49d9-a2bf-45cc5a89ea94","version":3,"sources":[{"property":"","dataset":"Microsoft ML Buildings","license":"ODbL-1.0","record_id":null,"update_time":"2023-04-14T00:00:00.000Z","confidence":null,"between":null}],"has_parts":false,"is_underground":false}},
{"type":"Feature","geometry":{"type":"Polygon","coordinates":[[[-75.5922244,6.2487942],[-75.5923186,6.2488001],[-75.5923267,6.2486722],[-75.5922697,6.2486686],[-75.5922184,6.2485939],[-75.5921915,6.2486121],[-75.5922322,6.2486713],[-75.5922244,6.2487942]]]},"properties":{"id":"da436e55-679d-4fa0-a795-9b985d60af55","version":1,"sources":[{"property":"","dataset":"OpenStreetMap","license":"ODbL-1.0","record_id":"w788310410@1","update_time":"2020-04-05T23:32:07.000Z","confidence":null,"between":null}],"has_parts":false,"is_underground":false}},
{"type":"Feature","geometry":{"type":"Polygon","coordinates":[[[-75.5924294,6.2490726],[-75.5926278,6.2490752],[-75.5926291,6.2489752],[-75.5924307,6.2489725],[-75.5924294,6.2490726]]]},"properties":{"id":"918f314b-9efc-4c9c-8f4a-d20f8d432922","version":1,"sources":[{"property":"","dataset":"OpenStreetMap","license":"ODbL-1.0","record_id":"w788310399@1","update_time":"2020-04-05T23:32:07.000Z","confidence":null,"between":null}],"has_parts":false,"is_underground":false}},
{"type":"Feature","geometry":{"type":"Polygon","coordinates":[[[-75.5921423,6.2490815],[-75.5922809,6.2491023],[-75.5922933,6.249021],[-75.5922703,6.2490176],[-75.5922798,6.2489546],[-75.5921181,6.2489303],[-75.5921075,6.2490003],[-75.5921536,6.2490072],[-75.5921423,6.2490815]]]},"properties":{"id":"bad271eb-96d6-43a2-8d22-618bb2f45f95","version":1,"sources":[{"property":"","dataset":"OpenStreetMap","license":"ODbL-1.0","record_id":"w788310405@1","update_time":"2020-04-05T23:32:07.000Z","confidence":null,"between":null}],"has_parts":false,"is_underground":false}},
{"type":"Feature","geometry":{"type":"Polygon","coordinates":[[[-75.5919248,6.2484609],[-75.5918942,6.2484623],[-75.5918959,6.2484997],[-75.5919264,6.2484983],[-75.5919248,6.2484609]]]},"properties":{"id":"796b0ccc-4fdb-49db-9250-5e78a89a5948","version":1,"sources":[{"property":"","dataset":"Google Open Buildings","license":null,"record_id":"67R66CX5+96W9","update_time":"2023-05-01T00:00:00.000Z","confidence":0.7185,"between":null}],"has_parts":false,"is_underground":false}},
{"type":"Feature","geometry":{"type":"Polygon","coordinates":[[[-75.5918985,6.2485683],[-75.5918538,6.2485634],[-75.5918415,6.2486764],[-75.5918861,6.2486813],[-75.5918985,6.2485683]]]},"properties":{"id":"5490cc04-8c98-4a3a-8430-81aa9b3991f1","version":1,"sources":[{"property":"","dataset":"Google Open Buildings","license":null,"record_id":"67R66CX5+C7RR","update_time":"2023-05-01T00:00:00.000Z","confidence":0.864,"between":null}],"has_parts":false,"is_underground":false}},
{"type":"Feature","geometry":{"type":"Polygon","coordinates":[[[-75.5917612,6.2485826],[-75.591752,6.2486666],[-75.5918252,6.2486746],[-75.5918306,6.2486254],[-75.5918032,6.2486224],[-75.591807,6.2485876],[-75.5917612,6.2485826]]]},"properties":{"id":"83a5ade0-b106-4ac4-90ce-413408d8aa26","version":1,"sources":[{"property":"","dataset":"Google Open Buildings","license":null,"record_id":"67R66CX5+F749","update_time":"2023-05-01T00:00:00.000Z","confidence":0.8663,"between":null}],"has_parts":false,"is_underground":false}},
{"type":"Feature","geometry":{"type":"Polygon","coordinates":[[[-75.5919806,6.248593],[-75.5918993,6.2485882],[-75.5918906,6.2487344],[-75.5918382,6.2487313],[-75.5918356,6.2487751],[-75.5919693,6.2487829],[-75.5919806,6.248593]]]},"properties":{"id":"679fb9d5-4d99-4424-9344-ada6e28a4040","version":3,"sources":[{"property":"","dataset":"Microsoft ML Buildings","license":"ODbL-1.0","record_id":null,"update_time":"2023-04-14T00:00:00.000Z","confidence":null,"between":null}],"has_parts":false,"is_underground":false}},
{"type":"Feature","geometry":{"type":"Polygon","coordinates":[[[-75.5915437,6.2486711],[-75.5916635,6.2486766],[-75.5916904,6.248586],[-75.5916506,6.2485856],[-75.5916508,6.24856],[-75.5917186,6.2485607],[-75.5917195,6.2484719],[-75.5915009,6.2484698],[-75.5915005,6.2485039],[-75.5914436,6.2485033],[-75.5914677,6.2485486],[-75.5914667,6.2485718],[-75.5915482,6.2485755],[-75.5915437,6.2486711]]]},"properties":{"id":"7ae65830-0a58-4cb7-87c0-20d84dc27135","version":1,"sources":[{"property":"","dataset":"OpenStreetMap","license":"ODbL-1.0","record_id":"w788310415@1","update_time":"2020-04-05T23:32:07.000Z","confidence":null,"between":null}],"has_parts":false,"is_underground":false}},
{"type":"Feature","geometry":{"type":"Polygon","coordinates":[[[-75.5915014,6.248639],[-75.5914608,6.248639],[-75.5914608,6.2486612],[-75.5915015,6.2486611],[-75.5915014,6.248639]]]},"properties":{"id":"1261b435-bfbd-4eed-9935-5b59328b57c7","version":1,"sources":[{"property":"","dataset":"Google Open Buildings","license":null,"record_id":"67R66CX5+FC64","update_time":"2023-05-01T00:00:00.000Z","confidence":0.7035,"between":null}],"has_parts":false,"is_underground":false}},
{"type":"Feature","geometry":{"type":"Polygon","coordinates":[[[-75.5919862,6.2491191],[-75.5920797,6.2491253],[-75.5920895,6.248978],[-75.5920546,6.2489757],[-75.5920588,6.2489131],[-75.5920002,6.2489093],[-75.5919862,6.2491191]]]},"properties":{"id":"7f973a92-f173-4594-8d40-9be8b4699d6b","version":1,"sources":[{"property":"","dataset":"OpenStreetMap","license":"ODbL-1.0","record_id":"w788310408@1","update_time":"2020-04-05T23:32:07.000Z","confidence":null,"between":null}],"has_parts":false,"is_underground":false}},
{"type":"Feature","geometry":{"type":"Polygon","coordinates":[[[-75.5917397,6.2491011],[-75.5918031,6.2491077],[-75.5918219,6.2489294],[-75.5917586,6.2489228],[-75.5917397,6.2491011]]]},"properties":{"id":"dad6b801-2929-4f58-acd5-37f0b48ec242","version":1,"sources":[{"property":"","dataset":"OpenStreetMap","license":"ODbL-1.0","record_id":"w788310409@1","update_time":"2020-04-05T23:32:07.000Z","confidence":null,"between":null}],"has_parts":false,"is_underground":false}},
{"type":"Feature","geometry":{"type":"Polygon","coordinates":[[[-75.5917633,6.249113],[-75.5917576,6.2491666],[-75.591825,6.2491737],[-75.5918306,6.2491201],[-75.5917633,6.249113]]]},"properties":{"id":"db39e6b9-dd40-4271-a848-ba2e821a55e7","version":1,"sources":[{"property":"","dataset":"Google Open Buildings","license":null,"record_id":"67R66CX5+M74P","update_time":"2023-05-01T00:00:00.000Z","confidence":0.7361,"between":null}],"has_parts":false,"is_underground":false}},
{"type":"Feature","geometry":{"type":"Polygon","coordinates":[[[-75.5915726,6.248944],[-75.5915616,6.2490481],[-75.591613,6.2490536],[-75.591624,6.2489494],[-75.5915726,6.248944]]]},"properties":{"id":"815dc6e6-0af0-444a-bd92-5f07c553381e","version":1,"sources":[{"property":"","dataset":"Google Open Buildings","license":null,"record_id":"67R66CX5+H9VR","update_time":"2023-05-01T00:00:00.000Z","confidence":0.819,"between":null}],"has_parts":false,"is_underground":false}},
{"type":"Feature","geometry":{"type":"Polygon","coordinates":[[[-75.5914147,6.2489862],[-75.5914098,6.2490321],[-75.5915616,6.2490481],[-75.5915664,6.2490022],[-75.5914147,6.2489862]]]},"properties":{"id":"c79b7634-2b8e-4e17-9dc7-c5602b9682ef","version":1,"sources":[{"property":"","dataset":"Google Open Buildings","license":null,"record_id":"67R66CX5+JC2M","update_time":"2023-05-01T00:00:00.000Z","confidence":0.7752,"between":null}],"has_parts":false,"is_underground":false}},
{"type":"Feature","geometry":{"type":"Polygon","coordinates":[[[-75.5913974,6.249025],[-75.5913917,6.2490741],[-75.5915363,6.2490909],[-75.5915419,6.2490418],[-75.5913974,6.249025]]]},"properties":{"id":"65bce371-78e9-4dab-b25f-07495dc6d8e3","version":1,"sources":[{"property":"","dataset":"Google Open Buildings","license":null,"record_id":"67R66CX5+JCF6","update_time":"2023-05-01T00:00:00.000Z","confidence":0.8247,"between":null}],"has_parts":false,"is_underground":false}},
{"type":"Feature","geometry":{"type":"Polygon","coordinates":[[[-75.5916122,6.2490455],[-75.5915498,6.2490386],[-75.5915389,6.2491382],[-75.5916014,6.249145],[-75.5916122,6.2490455]]]},"properties":{"id":"c0212317-b484-4bf3-a3ef-10a26dd3d304","version":1,"sources":[{"property":"","dataset":"Google Open Buildings","license":null,"record_id":"67R66CX5+J9MP","update_time":"2023-05-01T00:00:00.000Z","confidence":0.7334,"between":null}],"has_parts":false,"is_underground":false}},
{"type":"Feature","geometry":{"type":"Polygon","coordinates":[[[-75.5924604,6.2492506],[-75.5924457,6.2493658],[-75.5925014,6.2493729],[-75.5925161,6.2492578],[-75.5924604,6.2492506]]]},"properties":{"id":"6e1867e5-fc26-49fa-869e-6fb930d5b466","version":1,"sources":[{"property":"","dataset":"Google Open Buildings","license":null,"record_id":"67R66CX5+P2CG","update_time":"2023-05-01T00:00:00.000Z","confidence":0.8398,"between":null}],"has_parts":false,"is_underground":false}},
{"type":"Feature","geometry":{"type":"Polygon","coordinates":[[[-75.5924419,6.2495029],[-75.5925767,6.2495196],[-75.592605,6.2492941],[-75.5925182,6.2492833],[-75.5925059,6.2493812],[-75.592458,6.2493753],[-75.5924419,6.2495029]]]},"properties":{"id":"275dc2b7-7ef8-4cb7-b155-3fc523c3f11d","version":1,"sources":[{"property":"","dataset":"OpenStreetMap","license":"ODbL-1.0","record_id":"w788310403@1","update_time":"2020-04-05T23:32:07.000Z","confidence":null,"between":null}],"has_parts":false,"is_underground":false}},
{"type":"Feature","geometry":{"type":"Polygon","coordinates":[[[-75.5923994,6.2491925],[-75.5923889,6.24924],[-75.5924486,6.2492532],[-75.592459,6.2492056],[-75.5923994,6.2491925]]]},"properties":{"id":"e261a0b2-1b7d-4596-bd8b-908a24516f10","version":1,"sources":[{"property":"","dataset":"Google Open Buildings","license":null,"record_id":"67R66CX5+M2PV","update_time":"2023-05-01T00:00:00.000Z","confidence":0.683,"between":null}],"has_parts":false,"is_underground":false}},
{"type":"Feature","geometry":{"type":"Polygon","coordinates":[[[-75.5922136,6.2491582],[-75.5922072,6.2492171],[-75.5922634,6.2492231],[-75.5922698,6.2491643],[-75.5922136,6.2491582]]]},"properties":{"id":"fb91abd8-9c0d-43a5-b76f-bbb93c14c30e","version":1,"sources":[{"property":"","dataset":"Google Open Buildings","license":null,"record_id":"67R66CX5+M4CM","update_time":"2023-05-01T00:00:00.000Z","confidence":0.7747,"between":null}],"has_parts":false,"is_underground":false}},
{"type":"Feature","geometry":{"type":"Polygon","coordinates":[[[-75.5921097,6.2491496],[-75.5920969,6.2492703],[-75.5922565,6.2492872],[-75.5922636,6.24922],[-75.5922082,6.2492141],[-75.5922138,6.2491606],[-75.5921097,6.2491496]]]},"properties":{"id":"04c6905f-9525-4a17-97e5-d9f81cafa734","version":1,"sources":[{"property":"","dataset":"Google Open Buildings","license":null,"record_id":"67R66CX5+M4PV","update_time":"2023-05-01T00:00:00.000Z","confidence":0.7792,"between":null}],"has_parts":false,"is_underground":false}},
{"type":"Feature","geometry":{"type":"Polygon","coordinates":[[[-75.5923406,6.2495063],[-75.5924141,6.2495159],[-75.5924474,6.2492638],[-75.5923739,6.2492542],[-75.5923406,6.2495063]]]},"properties":{"id":"74f03885-4d23-4878-8e2d-11d14cd0da37","version":1,"sources":[{"property":"","dataset":"OpenStreetMap","license":"ODbL-1.0","record_id":"w788310404@1","update_time":"2020-04-05T23:32:07.000Z","confidence":null,"between":null}],"has_parts":false,"is_underground":false}},
{"type":"Feature","geometry":{"type":"Polygon","coordinates":[[[-75.5921384,6.2494982],[-75.5922131,6.249506],[-75.5922334,6.249315],[-75.5921587,6.2493072],[-75.5921384,6.2494982]]]},"properties":{"id":"e42740da-4a44-4262-ae85-19412ebfc79e","version":1,"sources":[{"property":"","dataset":"OpenStreetMap","license":"ODbL-1.0","record_id":"w788310406@2","update_time":"2021-11-09T16:44:24.000Z","confidence":null,"between":null}],"subtype":"residential","class":"apartments","has_parts":false,"is_underground":false}},
{"type":"Feature","geometry":{"type":"Polygon","coordinates":[[[-75.5918924,6.2491808],[-75.5918387,6.2491751],[-75.5918357,6.2492045],[-75.5918219,6.249203],[-75.5917975,6.2494342],[-75.591865,6.2494413],[-75.5918924,6.2491808]]]},"properties":{"id":"d8eb1d23-59c2-4f45-81d7-95c4a7314266","version":1,"sources":[{"property":"","dataset":"Google Open Buildings","license":null,"record_id":"67R66CX5+P7CH","update_time":"2023-05-01T00:00:00.000Z","confidence":0.7407,"between":null}],"has_parts":false,"is_underground":false}},
{"type":"Feature","geometry":{"type":"Polygon","coordinates":[[[-75.5918285,6.2491709],[-75.5917591,6.2491635],[-75.5917309,6.2494259],[-75.5918002,6.2494333],[-75.5918285,6.2491709]]]},"properties":{"id":"758fa605-04b7-4b6c-9b1d-0cb0d5e8e3b2","version":1,"sources":[{"property":"","dataset":"Google Open Buildings","license":null,"record_id":"67R66CX5+P79R","update_time":"2023-05-01T00:00:00.000Z","confidence":0.793,"between":null}],"has_parts":false,"is_underground":false}},
{"type":"Feature","geometry":{"type":"Polygon","coordinates":[[[-75.5919808,6.2494809],[-75.5920259,6.249486],[-75.59205,6.2492747],[-75.5920049,6.2492696],[-75.5919808,6.2494809]]]},"properties":{"id":"a250c55a-be84-4861-a843-b02c1d651442","version":1,"sources":[{"property":"","dataset":"OpenStreetMap","license":"ODbL-1.0","record_id":"w788310407@1","update_time":"2020-04-05T23:32:07.000Z","confidence":null,"between":null}],"has_parts":false,"is_underground":false}},
{"type":"Feature","geometry":{"type":"Polygon","coordinates":[[[-75.5913966,6.2491581],[-75.5913738,6.2493743],[-75.5915769,6.2493958],[-75.5915997,6.2491796],[-75.5913966,6.2491581]]]},"properties":{"id":"a7b71b81-99ae-4639-bfc2-5e774d025cd2","version":1,"sources":[{"property":"","dataset":"Google Open Buildings","license":null,"record_id":"67R66CX5+PC63","update_time":"2023-05-01T00:00:00.000Z","confidence":0.9073,"between":null}],"has_parts":false,"is_underground":false}},
{"type":"Feature","geometry":{"type":"Polygon","coordinates":[[[-75.5912525,6.2464436],[-75.591204,6.246317],[-75.5910769,6.2463652],[-75.5910946,6.2464113],[-75.5911136,6.2464041],[-75.5911444,6.2464846],[-75.5912525,6.2464436]]]},"properties":{"id":"5c4c04f5-6c06-45ea-8208-573bfce4c40c","version":1,"sources":[{"property":"","dataset":"OpenStreetMap","license":"ODbL-1.0","record_id":"w792714527@2","update_time":"2025-04-02T08:58:21.000Z","confidence":null,"between":null}],"has_parts":false,"is_underground":false}},
{"type":"Feature","geometry":{"type":"Polygon","coordinates":[[[-75.5915221,6.2465609],[-75.5914358,6.2463686],[-75.5912889,6.2464337],[-75.5913752,6.246626],[-75.5915051,6.2465684],[-75.5915221,6.2465609]]]},"properties":{"id":"d6c1f85c-852f-4179-8d11-304848d9d2be","version":1,"sources":[{"property":"","dataset":"OpenStreetMap","license":"ODbL-1.0","record_id":"w792714526@2","update_time":"2025-04-02T09:00:08.000Z","confidence":null,"between":null}],"has_parts":false,"is_underground":false}},
{"type":"Feature","geometry":{"type":"Polygon","coordinates":[[[-75.5911812,6.2467692],[-75.5913597,6.2467126],[-75.5913298,6.2466461],[-75.591256,6.246461],[-75.5910874,6.2465249],[-75.5911812,6.2467692]]]},"properties":{"id":"bae66d4a-a843-4504-9298-2e7a3ea471ec","version":1,"sources":[{"property":"","dataset":"OpenStreetMap","license":"ODbL-1.0","record_id":"w792714528@3","update_time":"2025-04-02T09:00:08.000Z","confidence":null,"between":null}],"has_parts":false,"is_underground":false}},
{"type":"Feature","geometry":{"type":"Polygon","coordinates":[[[-75.5914904,6.2469695],[-75.5915003,6.246851],[-75.5913964,6.2468423],[-75.5913919,6.2468961],[-75.5913457,6.2468923],[-75.5913404,6.246957],[-75.5914904,6.2469695]]]},"properties":{"id":"bd1ec59b-8173-4192-84a0-7b281237d0cb","version":1,"sources":[{"property":"","dataset":"Google Open Buildings","license":null,"record_id":"67R66CW5+QC87","update_time":"2023-05-01T00:00:00.000Z","confidence":0.8536,"between":null}],"has_parts":false,"is_underground":false}},
{"type":"Feature","geometry":{"type":"Polygon","coordinates":[[[-75.5912727,6.2472269],[-75.5912658,6.2471046],[-75.5911749,6.2471096],[-75.5911693,6.2470086],[-75.5910944,6.2470127],[-75.5910993,6.2471005],[-75.5911394,6.2470983],[-75.5911424,6.2471514],[-75.5910702,6.2471554],[-75.5910748,6.2472378],[-75.5912727,6.2472269]]]},"properties":{"id":"2a76f908-e02e-43c9-879d-6075931386e7","version":3,"sources":[{"property":"","dataset":"Microsoft ML Buildings","license":"ODbL-1.0","record_id":null,"update_time":"2023-04-14T00:00:00.000Z","confidence":null,"between":null}],"has_parts":false,"is_underground":false}},
{"type":"Feature","geometry":{"type":"Polygon","coordinates":[[[-75.5914022,6.2473351],[-75.591399,6.2472362],[-75.5912283,6.2472416],[-75.5912295,6.2472811],[-75.5912061,6.2472818],[-75.5912087,6.2473657],[-75.5913675,6.2473606],[-75.5913665,6.2473362],[-75.5914022,6.2473351]]]},"properties":{"id":"0efa94c1-beac-46b0-a21a-19ae2f600318","version":1,"sources":[{"property":"","dataset":"Google Open Buildings","license":null,"record_id":"67R66CW5+WFG3","update_time":"2023-05-01T00:00:00.000Z","confidence":0.8813,"between":null}],"has_parts":false,"is_underground":false}},
{"type":"Feature","geometry":{"type":"Polygon","coordinates":[[[-75.5912721,6.2474325],[-75.5912669,6.2474867],[-75.5913995,6.2474996],[-75.5914048,6.2474453],[-75.5912721,6.2474325]]]},"properties":{"id":"4e1cd271-aec3-4818-bb64-d036ab71fb0b","version":1,"sources":[{"property":"","dataset":"Google Open Buildings","license":null,"record_id":"67R66CW5+XFMM","update_time":"2023-05-01T00:00:00.000Z","confidence":0.8985,"between":null}],"has_parts":false,"is_underground":false}},
{"type":"Feature","geometry":{"type":"Polygon","coordinates":[[[-75.5912413,6.247508],[-75.5912363,6.2475555],[-75.5914207,6.2475749],[-75.5914257,6.2475274],[-75.5912413,6.247508]]]},"properties":{"id":"7d26d147-c1e2-4259-90b6-b0705dd7e1d5","version":1,"sources":[{"property":"","dataset":"Google Open Buildings","license":null,"record_id":"67R66CX5+2F7M","update_time":"2023-05-01T00:00:00.000Z","confidence":0.8592,"between":null}],"has_parts":false,"is_underground":false}},
{"type":"Feature","geometry":{"type":"Polygon","coordinates":[[[-75.5914207,6.2475749],[-75.5912798,6.24756],[-75.5912758,6.2475981],[-75.5912462,6.247595],[-75.5912293,6.2477559],[-75.5912785,6.2477611],[-75.5912833,6.247716],[-75.5914045,6.2477287],[-75.5914207,6.2475749]]]},"properties":{"id":"e6968997-9bf9-4bfe-af2e-732daceccddb","version":1,"sources":[{"property":"","dataset":"Google Open Buildings","license":null,"record_id":"67R66CX5+3F74","update_time":"2023-05-01T00:00:00.000Z","confidence":0.8358,"between":null}],"has_parts":false,"is_underground":false}},
{"type":"Feature","geometry":{"type":"Polygon","coordinates":[[[-75.5912589,6.247759],[-75.5912541,6.247804],[-75.5912689,6.2478056],[-75.591271,6.247786],[-75.5913288,6.2477921],[-75.5913268,6.2478117],[-75.591395,6.2478189],[-75.5914045,6.2477287],[-75.5912833,6.247716],[-75.5912785,6.2477611],[-75.5912589,6.247759]]]},"properties":{"id":"4d46639c-4c54-4114-8165-aae6bc96cc6f","version":1,"sources":[{"property":"","dataset":"Google Open Buildings","license":null,"record_id":"67R66CX5+4F3J","update_time":"2023-05-01T00:00:00.000Z","confidence":0.7859,"between":null}],"has_parts":false,"is_underground":false}},
{"type":"Feature","geometry":{"type":"Polygon","coordinates":[[[-75.5912241,6.2475839],[-75.591034,6.2475757],[-75.5910308,6.2476502],[-75.5912209,6.2476584],[-75.5912241,6.2475839]]]},"properties":{"id":"834e5628-85ec-4518-8a25-2bf69db10410","version":3,"sources":[{"property":"","dataset":"Microsoft ML Buildings","license":"ODbL-1.0","record_id":null,"update_time":"2023-04-14T00:00:00.000Z","confidence":null,"between":null}],"has_parts":false,"is_underground":false}},
{"type":"Feature","geometry":{"type":"Polygon","coordinates":[[[-75.5913014,6.247809],[-75.5912966,6.2478548],[-75.591322,6.2478575],[-75.5913142,6.247931],[-75.5913825,6.2479382],[-75.591395,6.2478189],[-75.5913014,6.247809]]]},"properties":{"id":"1ece1be5-7240-4e1c-9f4b-dc9bf3c1f716","version":1,"sources":[{"property":"","dataset":"Google Open Buildings","license":null,"record_id":"67R66CX5+4FRQ","update_time":"2023-05-01T00:00:00.000Z","confidence":0.8338,"between":null}],"has_parts":false,"is_underground":false}},
{"type":"Feature","geometry":{"type":"Polygon","coordinates":[[[-75.5912246,6.2478009],[-75.5912159,6.2478828],[-75.5912455,6.2478859],[-75.5912493,6.2478498],[-75.5912966,6.2478548],[-75.5913014,6.247809],[-75.5912246,6.2478009]]]},"properties":{"id":"688657b7-c7d6-401c-9ffd-73a7bce36306","version":1,"sources":[{"property":"","dataset":"Google Open Buildings","license":null,"record_id":"67R66CX5+4FQH","update_time":"2023-05-01T00:00:00.000Z","confidence":0.7958,"between":null}],"has_parts":false,"is_underground":false}},
{"type":"Feature","geometry":{"type":"Polygon","coordinates":[[[-75.5912928,6.2478908],[-75.5912159,6.2478828],[-75.591212,6.2479202],[-75.5912889,6.2479283],[-75.5912928,6.2478908]]]},"properties":{"id":"6e2d656d-5376-4d10-9bc5-8ff1dfa34c42","version":1,"sources":[{"property":"","dataset":"Google Open Buildings","license":null,"record_id":"67R66CX5+5F99","update_time":"2023-05-01T00:00:00.000Z","confidence":0.723,"between":null}],"has_parts":false,"is_underground":false}},
{"type":"Feature","geometry":{"type":"Polygon","coordinates":[[[-75.5912469,6.248266],[-75.5913267,6.2482733],[-75.5913349,6.2481857],[-75.5912551,6.2481783],[-75.5912469,6.248266]]]},"properties":{"id":"704bedd2-0150-471e-9585-b93d0a2d0b0f","version":1,"sources":[{"property":"","dataset":"OpenStreetMap","license":"ODbL-1.0","record_id":"w843359636@1","update_time":"2020-09-02T04:11:35.000Z","confidence":null,"between":null}],"has_parts":false,"is_underground":false}},
{"type":"Feature","geometry":{"type":"Polygon","coordinates":[[[-75.591151,6.2482613],[-75.5912268,6.248266],[-75.591236,6.2481187],[-75.5911602,6.248114],[-75.591151,6.2482613]]]},"properties":{"id":"5f851e6e-6e62-4c30-b563-1d09da73634d","version":1,"sources":[{"property":"","dataset":"OpenStreetMap","license":"ODbL-1.0","record_id":"w843359637@1","update_time":"2020-09-02T04:11:35.000Z","confidence":null,"between":null}],"has_parts":false,"is_underground":false}},
{"type":"Feature","geometry":{"type":"Polygon","coordinates":[[[-75.5912181,6.2483953],[-75.5913033,6.248408],[-75.5913199,6.2482973],[-75.5912348,6.2482847],[-75.5912181,6.2483953]]]},"properties":{"id":"7701c796-a29c-4cf4-93fc-f0f68de44bae","version":1,"sources":[{"property":"","dataset":"OpenStreetMap","license":"ODbL-1.0","record_id":"w843359635@1","update_time":"2020-09-02T04:11:35.000Z","confidence":null,"between":null}],"has_parts":false,"is_underground":false}},
{"type":"Feature","geometry":{"type":"Polygon","coordinates":[[[-75.5911886,6.2484806],[-75.5912416,6.2484826],[-75.5912445,6.2484064],[-75.5911915,6.2484044],[-75.5911886,6.2484806]]]},"properties":{"id":"0cff6fbc-bbb9-406e-9112-816e23ecd76b","version":1,"sources":[{"property":"","dataset":"OpenStreetMap","license":"ODbL-1.0","record_id":"w843359633@1","update_time":"2020-09-02T04:11:35.000Z","confidence":null,"between":null}],"has_parts":false,"is_underground":false}},
{"type":"Feature","geometry":{"type":"Polygon","coordinates":[[[-75.5912921,6.248627],[-75.5913008,6.2485181],[-75.591308,6.2484281],[-75.5912643,6.2484247],[-75.5912588,6.2484935],[-75.5912077,6.2484895],[-75.5911973,6.2486195],[-75.5912921,6.248627]]]},"properties":{"id":"62f7a8c2-d0e7-46df-9feb-b8141e1b6436","version":1,"sources":[{"property":"","dataset":"OpenStreetMap","license":"ODbL-1.0","record_id":"w843358766@1","update_time":"2020-09-02T04:07:32.000Z","confidence":null,"between":null}],"has_parts":false,"is_underground":false}},
{"type":"Feature","geometry":{"type":"Polygon","coordinates":[[[-75.5912418,6.2488015],[-75.5912333,6.2488716],[-75.5912724,6.2488763],[-75.5912809,6.2488063],[-75.5912418,6.2488015]]]},"properties":{"id":"60d3954b-e2f4-4430-8365-cf86dd4c2c9b","version":1,"sources":[{"property":"","dataset":"Google Open Buildings","license":null,"record_id":"67R66CX5+GFQH","update_time":"2023-05-01T00:00:00.000Z","confidence":0.6826,"between":null}],"has_parts":false,"is_underground":false}},
{"type":"Feature","geometry":{"type":"Polygon","coordinates":[[[-75.5911344,6.2487885],[-75.5911259,6.2488585],[-75.59121,6.2488687],[-75.5912133,6.2488417],[-75.5912366,6.2488446],[-75.5912418,6.2488015],[-75.5911344,6.2487885]]]},"properties":{"id":"8f789ddb-3260-4f1e-93db-7ea71cc6d272","version":1,"sources":[{"property":"","dataset":"Google Open Buildings","license":null,"record_id":"67R66CX5+GGP2","update_time":"2023-05-01T00:00:00.000Z","confidence":0.7608,"between":null}],"has_parts":false,"is_underground":false}},
{"type":"Feature","geometry":{"type":"Polygon","coordinates":[[[-75.5912724,6.2488763],[-75.5911332,6.2488594],[-75.591128,6.248902],[-75.5912672,6.2489189],[-75.5912724,6.2488763]]]},"properties":{"id":"3e2a3612-e8eb-4215-970a-9da34f79de0f","version":1,"sources":[{"property":"","dataset":"Google Open Buildings","license":null,"record_id":"67R66CX5+HG3G","update_time":"2023-05-01T00:00:00.000Z","confidence":0.7721,"between":null}],"has_parts":false,"is_underground":false}},
{"type":"Feature","geometry":{"type":"Polygon","coordinates":[[[-75.5911137,6.2489595],[-75.5912601,6.2489773],[-75.5912661,6.2489279],[-75.5911197,6.2489101],[-75.5911137,6.2489595]]]},"properties":{"id":"f4b18b60-e170-4893-9d6d-81a5e15a26e9","version":1,"sources":[{"property":"","dataset":"Google Open Buildings","license":null,"record_id":"67R66CX5+HGFQ","update_time":"2023-05-01T00:00:00.000Z","confidence":0.7388,"between":null}],"has_parts":false,"is_underground":false}},
{"type":"Feature","geometry":{"type":"Polygon","coordinates":[[[-75.5911588,6.248965],[-75.5911528,6.2490153],[-75.5911646,6.2490167],[-75.5911583,6.2490686],[-75.5912478,6.2490795],[-75.5912601,6.2489773],[-75.5911588,6.248965]]]},"properties":{"id":"37b55cf2-6870-4697-82fe-ec643f1bfe53","version":1,"sources":[{"property":"","dataset":"Google Open Buildings","license":null,"record_id":"67R66CX5+JG3V","update_time":"2023-05-01T00:00:00.000Z","confidence":0.7414,"between":null}],"has_parts":false,"is_underground":false}}]}