{
"type": "FeatureCollection",
"name": "medellin_building_footprints",
"crs": { "type": "name", "properties": { "name": "urn:ogc:def:crs:OGC:1.3:CRS84" } },
"features": [
{ "type": "Feature", "properties": { "type": "Feature", "properties": { "height": -1.0, "confidence": -1.0 }, "id": 0 }, "geometry": { "type": "Polygon", "coordinates": [ [ [ -75.592301843298529, 6.24760058656814 ], [ -75.59245995635618, 6.247595955391105 ], [ -75.592458140195717, 6.247534684163583 ], [ -75.592300027138066, 6.247539315341172 ], [ -75.592301843298529, 6.24760058656814 ] ] ] } },
{ "type": "Feature", "properties": { "type": "Feature", "properties": { "height": -1.0, "confidence": -1.0 }, "id": 1 }, "geometry": { "type": "Polygon", "coordinates": [ [ [ -75.592384305017504, 6.248340916121464 ], [ -75.592381105619737, 6.248221017857787 ], [ -75.592103416397279, 6.248228320698942 ], [ -75.59210660735927, 6.248348219182816 ], [ -75.592384305017504, 6.248340916121464 ] ] ] } },
{ "type": "Feature", "properties": { "type": "Feature", "properties": { "height": -1.0, "confidence": -1.0 }, "id": 2 }, "geometry": { "type": "Polygon", "coordinates": [ [ [ -75.592205804228854, 6.247506244443613 ], [ -75.592208794633834, 6.247578111028645 ], [ -75.592283768211757, 6.24757502828588 ], [ -75.592280777806778, 6.247503161700436 ], [ -75.592205804228854, 6.247506244443613 ] ] ] } },
{ "type": "Feature", "properties": { "type": "Feature", "properties": { "height": -1.0, "confidence": -1.0 }, "id": 3 }, "geometry": { "type": "Polygon", "coordinates": [ [ [ -75.592355991380103, 6.248452846393377 ], [ -75.592197701539178, 6.248440269887652 ], [ -75.592190890810059, 6.248525049546316 ], [ -75.592170607467523, 6.248523437986577 ], [ -75.592160808518315, 6.2486453080448 ], [ -75.592110170043782, 6.248641284698635 ], [ -75.592100371094574, 6.248763154729417 ], [ -75.592193652494998, 6.248770566154818 ], [ -75.592189502810612, 6.248822175981658 ], [ -75.59232542789249, 6.248832966089324 ], [ -75.592355991380103, 6.248452846393377 ] ] ] } },
{ "type": "Feature", "properties": { "type": "Feature", "properties": { "height": -1.0, "confidence": -1.0 }, "id": 4 }, "geometry": { "type": "Polygon", "coordinates": [ [ [ -75.592293220715987, 6.247602916384807 ], [ -75.592289350448311, 6.24771743712499 ], [ -75.592005356807633, 6.247707953130174 ], [ -75.592003736695588, 6.247755892038086 ], [ -75.592451160638916, 6.247770833802065 ], [ -75.592456651018637, 6.247608374156528 ], [ -75.592293220715987, 6.247602916384807 ] ] ] } },
{ "type": "Feature", "properties": { "type": "Feature", "properties": { "height": -1.0, "confidence": -1.0 }, "id": 5 }, "geometry": { "type": "Polygon", "coordinates": [ [ [ -75.591633437749195, 6.247044572769838 ], [ -75.591611831016124, 6.247279913074422 ], [ -75.592021481687922, 6.247317049481708 ], [ -75.592035680033746, 6.247162401274579 ], [ -75.591989327579014, 6.247158196020479 ], [ -75.591996730038431, 6.247077506626582 ], [ -75.591633437749195, 6.247044572769838 ] ] ] } },
{ "type": "Feature", "properties": { "type": "Feature", "properties": { "height": -1.0, "confidence": -1.0 }, "id": 6 }, "geometry": { "type": "Polygon", "coordinates": [ [ [ -75.591894842511337, 6.249180366733228 ], [ -75.591879449030571, 6.249357686358138 ], [ -75.592004580992437, 6.249368420600973 ], [ -75.591992633813334, 6.249506041758167 ], [ -75.592226923444073, 6.249526139909094 ], [ -75.592254264103929, 6.249211199142721 ], [ -75.591894842511337, 6.249180366733228 ] ] ] } },
{ "type": "Feature", "properties": { "type": "Feature", "properties": { "height": -1.0, "confidence": -1.0 }, "id": 7 }, "geometry": { "type": "Polygon", "coordinates": [ [ [ -75.591454724095925, 6.248477665380761 ], [ -75.591445822973213, 6.24868525762038 ], [ -75.591705525436964, 6.248696261200422 ], [ -75.591714426559705, 6.248488668965137 ], [ -75.591454724095925, 6.248477665380761 ] ] ] } },
{ "type": "Feature", "properties": { "type": "Feature", "properties": { "height": -1.0, "confidence": -1.0 }, "id": 8 }, "geometry": { "type": "Polygon", "coordinates": [ [ [ -75.591475432302119, 6.249162239452843 ], [ -75.591393322739322, 6.24916402178475 ], [ -75.591394139703922, 6.249201331845626 ], [ -75.591476251892345, 6.249199549456847 ], [ -75.591475432302119, 6.249162239452843 ] ] ] } },
{ "type": "Feature", "properties": { "type": "Feature", "properties": { "height": -1.0, "confidence": -1.0 }, "id": 9 }, "geometry": { "type": "Polygon", "coordinates": [ [ [ -75.591899343562829, 6.248588219496113 ], [ -75.59189064950661, 6.248734352827995 ], [ -75.591838219157054, 6.248731266843592 ], [ -75.591835609536588, 6.248775078579598 ], [ -75.591969252005839, 6.248782935308554 ], [ -75.591980565383523, 6.248593000111569 ], [ -75.591899343562829, 6.248588219496113 ] ] ] } },
{ "type": "Feature", "properties": { "type": "Feature", "properties": { "height": -1.0, "confidence": -1.0 }, "id": 10 }, "geometry": { "type": "Polygon", "coordinates": [ [ [ -75.592098849919907, 6.246939358301631 ], [ -75.592070488432228, 6.247345020529309 ], [ -75.592388519970484, 6.247366992104318 ], [ -75.592394722161913, 6.247365616462972 ], [ -75.59240377924425, 6.247236200868329 ], [ -75.592360844012802, 6.247044856114954 ], [ -75.592365307732081, 6.246981074514935 ], [ -75.592328506105119, 6.246817064650642 ], [ -75.592327591678497, 6.246830130797861 ], [ -75.592300195221654, 6.246708074214595 ], [ -75.592329418260405, 6.246701594591741 ], [ -75.592303304638719, 6.246585216757552 ], [ -75.592283313924611, 6.246583835674016 ], [ -75.592118284919053, 6.246620427554021 ], [ -75.592164126309484, 6.246623594563715 ], [ -75.592072401742456, 6.246643932649945 ], [ -75.592070316808488, 6.246673724065147 ], [ -75.591976492130982, 6.246694527806838 ], [ -75.591974442455097, 6.246723844913902 ], [ -75.592003544390238, 6.246725857481749 ], [ -75.591658990265145, 6.246802255441381 ], [ -75.591642666469767, 6.247035504422328 ], [ -75.591774988167529, 6.24704464602469 ], [ -75.59177944840161, 6.246980850043187 ], [ -75.591932688293312, 6.246946872186783 ], [ -75.591938959317801, 6.246974810819452 ], [ -75.592098849919907, 6.246939358301631 ] ] ] } },
{ "type": "Feature", "properties": { "type": "Feature", "properties": { "height": -1.0, "confidence": -1.0 }, "id": 11 }, "geometry": { "type": "Polygon", "coordinates": [ [ [ -75.591578143115655, 6.247429144934671 ], [ -75.591524270235027, 6.248002731148531 ], [ -75.591615018117423, 6.248011147189857 ], [ -75.591637223526888, 6.248055244830468 ], [ -75.59179876745624, 6.247974862729563 ], [ -75.591855224537838, 6.247980098611066 ], [ -75.591860605663982, 6.247922762641124 ], [ -75.591896735440216, 6.247904784943714 ], [ -75.591977985593559, 6.248066139337411 ], [ -75.59239711072675, 6.248105009378534 ], [ -75.59240302899353, 6.248041997453498 ], [ -75.59238805452253, 6.248012259706556 ], [ -75.592419626650596, 6.24799654983714 ], [ -75.592435389144455, 6.247828600244802 ], [ -75.592188096137136, 6.247805666057516 ], [ -75.592176932644009, 6.24792461324347 ], [ -75.592187195577267, 6.247925565037391 ], [ -75.592069763819751, 6.247983997517679 ], [ -75.591971052781147, 6.247974842965505 ], [ -75.591991827940703, 6.24775348332976 ], [ -75.591862402171969, 6.247817883891273 ], [ -75.591883466677288, 6.247593441204131 ], [ -75.591830285385399, 6.247588509118728 ], [ -75.591842937344254, 6.247453702219374 ], [ -75.591578143115655, 6.247429144934671 ] ] ] } },
{ "type": "Feature", "properties": { "type": "Feature", "properties": { "height": -1.0, "confidence": -1.0 }, "id": 12 }, "geometry": { "type": "Polygon", "coordinates": [ [ [ -75.591881268000108, 6.247057188675072 ], [ -75.591862840306788, 6.246968974505819 ], [ -75.591775415092343, 6.246987021144292 ], [ -75.591793841567551, 6.247075229479392 ], [ -75.591881268000108, 6.247057188675072 ] ] ] } },
{ "type": "Feature", "properties": { "type": "Feature", "properties": { "height": -1.0, "confidence": -1.0 }, "id": 13 }, "geometry": { "type": "Polygon", "coordinates": [ [ [ -75.592154858612389, 6.248558495517742 ], [ -75.592098648912199, 6.248561041368944 ], [ -75.592102063667213, 6.248635542380157 ], [ -75.592158273367403, 6.248632996529366 ], [ -75.592154858612389, 6.248558495517742 ] ] ] } },
{ "type": "Feature", "properties": { "type": "Feature", "properties": { "height": -1.0, "confidence": -1.0 }, "id": 14 }, "geometry": { "type": "Polygon", "coordinates": [ [ [ -75.591813910020392, 6.248615718381032 ], [ -75.591818071137254, 6.248726187190499 ], [ -75.591876997118177, 6.248723993874421 ], [ -75.591872836155545, 6.248613529158447 ], [ -75.591813910020392, 6.248615718381032 ] ] ] } },
{ "type": "Feature", "properties": { "type": "Feature", "properties": { "height": -1.0, "confidence": -1.0 }, "id": 15 }, "geometry": { "type": "Polygon", "coordinates": [ [ [ -75.592201461966297, 6.24750052818348 ], [ -75.592111180071186, 6.247491502105745 ], [ -75.592095156536431, 6.247649876882292 ], [ -75.592185438431542, 6.247658902957312 ], [ -75.592201461966297, 6.24750052818348 ] ] ] } },
{ "type": "Feature", "properties": { "type": "Feature", "properties": { "height": -1.0, "confidence": -1.0 }, "id": 16 }, "geometry": { "type": "Polygon", "coordinates": [ [ [ -75.591472462334465, 6.248146598163956 ], [ -75.591447956415053, 6.248459321064502 ], [ -75.591736929298236, 6.248481697612135 ], [ -75.591733513030476, 6.248525253853231 ], [ -75.591731413614681, 6.248517823440011 ], [ -75.591727916855362, 6.24856240591788 ], [ -75.591732115686938, 6.248577266742998 ], [ -75.591722237194233, 6.24870321410107 ], [ -75.591808142475102, 6.248709872130092 ], [ -75.591809219708068, 6.248709571370554 ], [ -75.591817289148992, 6.248606596362094 ], [ -75.591874307935655, 6.248611015564293 ], [ -75.59187812477515, 6.248562352178837 ], [ -75.591902805115097, 6.248555461515195 ], [ -75.591917557813616, 6.248367369658055 ], [ -75.591972588516256, 6.248352005274626 ], [ -75.591987538156332, 6.248353163936869 ], [ -75.592107279931227, 6.248319732442553 ], [ -75.592076486635477, 6.248210746397376 ], [ -75.59204733671676, 6.248208487151061 ], [ -75.5919764323761, 6.248228283405112 ], [ -75.591943938007972, 6.248225767210144 ], [ -75.591933925543884, 6.248190330308901 ], [ -75.591871764480345, 6.248185516878891 ], [ -75.591767539652466, 6.248214616102189 ], [ -75.591771057858665, 6.248169719852342 ], [ -75.591472462334465, 6.248146598163956 ] ] ] } },
{ "type": "Feature", "properties": { "type": "Feature", "properties": { "height": -1.0, "confidence": -1.0 }, "id": 17 }, "geometry": { "type": "Polygon", "coordinates": [ [ [ -75.592278000829353, 6.249186884989911 ], [ -75.592294732863053, 6.248966841673521 ], [ -75.592098385916174, 6.248952088402191 ], [ -75.592099596574357, 6.248936181736084 ], [ -75.591861226103546, 6.248918270867065 ], [ -75.591846205405517, 6.249115808395743 ], [ -75.591900541717109, 6.249119894939369 ], [ -75.591895497334548, 6.249186172339449 ], [ -75.591947843949313, 6.249190109240743 ], [ -75.591947947465187, 6.249188747901584 ], [ -75.592019955687363, 6.249194158509624 ], [ -75.592021971595017, 6.249167647271946 ], [ -75.592278000829353, 6.249186884989911 ] ] ] } },
{ "type": "Feature", "properties": { "type": "Feature", "properties": { "height": -1.0, "confidence": -1.0 }, "id": 18 }, "geometry": { "type": "Polygon", "coordinates": [ [ [ -75.591355648082114, 6.249415695927524 ], [ -75.591857288345196, 6.249474608074038 ], [ -75.591888834141869, 6.249209019489768 ], [ -75.591817410786462, 6.249200631596238 ], [ -75.591847866812174, 6.248944217818035 ], [ -75.591805541515853, 6.248939250116166 ], [ -75.591809130308746, 6.248909035530204 ], [ -75.591404397961369, 6.248861504104553 ], [ -75.591397526599707, 6.248919355133211 ], [ -75.591432918333595, 6.248923511508323 ], [ -75.591425105403232, 6.248989250769227 ], [ -75.591402944781493, 6.248986648245022 ], [ -75.591389826727422, 6.249097091085957 ], [ -75.591570696953539, 6.249118332323789 ], [ -75.591559133816617, 6.249215626390793 ], [ -75.591381899528116, 6.249194812158109 ], [ -75.591355648082114, 6.249415695927524 ] ] ] } },
{ "type": "Feature", "properties": { "type": "Feature", "properties": { "height": -1.0, "confidence": -1.0 }, "id": 19 }, "geometry": { "type": "Polygon", "coordinates": [ [ [ -75.592091980702833, 6.247618454410343 ], [ -75.592098826590259, 6.24748014271546 ], [ -75.591844632100432, 6.247467710082517 ], [ -75.591838707774755, 6.247587402900407 ], [ -75.591927006913338, 6.247591721603499 ], [ -75.591924373879706, 6.247644918402216 ], [ -75.592043209703249, 6.247650730651259 ], [ -75.592044923603751, 6.247616152851876 ], [ -75.592091980702833, 6.247618454410343 ] ] ] } }
]
}
